NEE-01 PEGASUS          
1 39151U 13018B   17346.48197288  .00000202  00000-0  33843-4 0  9999
2 39151  97.9812  76.8634 0016982 188.7638 171.3280 14.79824410249904
